ELFIN-A                 
1 43617U 18070E   21120.48187359  .00008127  00000-0  17490-3 0  9990
2 43617  93.0273 286.9313 0013833 174.5858 185.5551 15.44533593147380
CUBEBEL-1 (BSUSAT-1)    
1 43666U 18083E   21120.82806271  .00002124  00000-0  10396-3 0  9996
2 43666  97.4602 149.7911 0014036 342.2148 122.5633 15.19206359138785
CICERO 10               
1 43690U 18088A   21120.55548526  .00001775  00000-0  77928-4 0  9990
2 43690  85.0404 229.2490 0013072 219.0603 140.9696 15.21104533136940
IRVINE01                
1 43693U 18088D   21120.60075897  .00004314  00000-0  16962-3 0  9997
2 43693  85.0369 226.7411 0016416 194.0191 166.0599 15.25226233137147
PROXIMA I               
1 43694U 18088E   21120.57981590  .00001859  00000-0  77398-4 0  9992
2 43694  85.0348 226.9658 0018355 189.5497 170.5400 15.22835859137094
PROXIMA II              
1 43696U 18088G   21120.44657999  .00001826  00000-0  76002-4 0  9998
2 43696  85.0349 227.0619 0018394 189.9852 170.1028 15.22833581137067
FACSAT-1                
1 43721U 18096C   21120.88022177  .00003347  00000-0  12226-3 0  9995
2 43721  97.3870 198.3860 0018510  80.8338  30.3738 15.28649631134853
CENTAURI-2              
1 43722U 18096D   21120.47195137  .00003676  00000-0  12981-3 0  9991
2 43722  97.3883 198.6819 0018227  82.1399 278.1910 15.29705437134821
INNOSAT-2               
1 43738U 18096V   21120.89607130  .00007017  00000-0  22018-3 0  9990
2 43738  97.3935 202.5986 0023250  81.7296  11.4787 15.33089407135119
SIRION PATHFINDER-2     
1 43759U 18099B   21120.55322002  .00000639  00000-0  62827-4 0  9997
2 43759  97.6669 192.1695 0013729 197.2518 162.8238 14.95489260131329
CORVUS BC4              
1 43767U 18099K   21120.47945616  .00000726  00000-0  71623-4 0  9990
2 43767  97.6643 191.1481 0011142 201.2598 158.8161 14.94916930131264
MOVE-II                 
1 43780U 18099Y   21120.45052328  .00000551  00000-0  54357-4 0  9993
2 43780  97.6689 192.1724 0012786 209.5056 150.5445 14.95857000131295
SPACEBEE-7              
1 43816U 18099BL  21120.46877436  .00000963  00000-0  90675-4 0  9999
2 43816  97.6703 192.7618 0013196 192.2459 167.8443 14.96071007130880
SPACEBEE-5              
1 43817U 18099BM  21120.44557361  .00000986  00000-0  90114-4 0  9993
2 43817  97.6786 193.8611 0012819 191.6988 168.3938 14.97211492130923
SPACEBEE-6              
1 43818U 18099BN  21120.24400965  .00000531  00000-0  51894-4 0  9997
2 43818  97.6731 192.8854 0012919 192.9332 167.1560 14.96419298131012
SHIELDS 1               
1 43850U 18104B   21120.52158986  .00000813  00000-0  33948-4 0  9997
2 43850  85.0270 325.6616 0014382 354.0846   6.0224 15.21823255131688
STF-1                   
1 43852U 18104D   21120.37459188  .00001993  00000-0  84621-4 0  9994
2 43852  85.0308 326.4267 0014500   9.3342 350.8166 15.22292885131647
ZACUBE-2                
1 43907U 18111AH  21120.75984038  .00001291  00000-0  53989-4 0  9996
2 43907  97.2385  16.4975 0023026 100.8702 343.1847 15.25123123130360
LUME 1                  
1 43908U 18111AJ  21120.46584892  .00001783  00000-0  71460-4 0  9999
2 43908  97.2377  16.7037 0022395 100.5902 259.7861 15.26075593130356
AOBA VELOX-IV           
1 43940U 19003J   21120.60304254  .00003805  00000-0  14560-3 0  9998
2 43940  97.1823 166.4907 0022973 174.7739 185.3745 15.26909265127004
CATSAT-2                
1 44029U 98067PV  21103.18846432  .08994300  12447-4  71822-3 0  9990
2 44029  51.6303 210.8330 0006076 315.2983  44.7553 16.39157428125817
UNITE                   
1 44031U 98067PX  21120.47536082  .00033207  00000-0  22206-3 0  9993
2 44031  51.6354 152.5558 0001409  53.3632 306.7497 15.74979940128108
CATSAT-1                
1 44033U 98067PZ  21102.52173143  .03148828  12044-4  93890-3 0  9997
2 44033  51.6349 214.6392 0009094 323.2962  36.7435 16.26195910125613
RAAVANA-1               
1 44329U 98067QE  21120.51854788  .00037798  00000-0  27346-3 0  9993
2 44329  51.6322 171.6982 0004472  66.6126 293.5343 15.73070682106602
UGUISU                  
1 44330U 98067QF  21120.50204011  .00037466  00000-0  27562-3 0  9994
2 44330  51.6310 172.2574 0004543  67.9325 292.2156 15.72681735106579
NEPALISAT-1             
1 44331U 98067QG  21120.51206870  .00037595  00000-0  27267-3 0  9996
2 44331  51.6301 171.5726 0004378  68.4951 291.6514 15.73014942106592
SPOOQY-1                
1 44332U 98067QH  21120.56936011  .00036904  00000-0  27562-3 0  9990
2 44332  51.6317 171.9909 0003891  64.9147 295.2254 15.72335221106556
SPACEBEE-9              
1 44370U 19037F   21120.47503884  .00025019  00000-0  37349-3 0  9999
2 44370  44.9997 132.0213 0007946 303.7082  56.3054 15.54622459103711
SPACEBEE-8              
1 44371U 19037G   21115.38628577  .04142189  47795-1  31371-2 0  9994
2 44371  44.9858 123.2481 0004816 133.1113 227.0208 16.18815125103364
MOVE-IIB                
1 44398U 19038N   21120.57851823  .00002104  00000-0  12043-3 0  9994
2 44398  97.5782  84.8140 0025900 111.9778 248.4206 15.13484795100524
SONATE                  
1 44400U 19038Q   21120.68184698  .00001270  00000-0  76263-4 0  9997
2 44400  97.5844  84.8289 0026410 112.4669 247.9364 15.12472141100512
LUCKY-7                 
1 44406U 19038W   21120.43349954  .00001240  00000-0  73788-4 0  9990
2 44406  97.5857  84.8081 0025808 112.6075 247.7889 15.12854827100486
BEESAT 9                
1 44412U 19038AC  21120.46271587  .00001540  00000-0  90085-4 0  9998
2 44412  97.5842  84.8499 0023726 117.3363 243.0287 15.13150397100190
JAISAT-1                
1 44419U 19038F   21120.44782253  .00001656  00000-0  95342-4 0  9999
2 44419  97.5846  85.3444 0022628 115.6666 244.6905 15.13635293100539
KRAKSAT                 
1 44427U 98067QM  21120.72812706  .00022440  00000-0  22533-3 0  9990
2 44427  51.6407 182.7770 0005113  41.5537  56.4656 15.65382993103998
VCC A                   
1 44428U 98067QN  21120.38994948  .00034620  00000-0  27124-3 0  9996
2 44428  51.6346 176.1722 0004046  37.0956 323.0321 15.71227493104054
ENTRYSAT                
1 44429U 98067QP  21120.53562095  .00062132  00000-0  35583-3 0  9995
2 44429  51.6291 167.9801 0005103  31.9650 328.1660 15.78205177104176
VCC C                   
1 44430U 98067QQ  21120.53888189  .00377528  72493-4  68097-3 0  9995
2 44430  51.6192 155.8347 0008466  23.7622 336.3778 16.00966173103167
VCC B                   
1 44431U 98067QR  21120.54996092  .00035581  00000-0  27331-3 0  9997
2 44431  51.6315 174.9074 0004183  38.4461 321.6834 15.71685238104023
DUCHIFAT-3              
1 44854U 19089C   21120.78199610  .00000922  00000-0  80175-4 0  9997
2 44854  36.9664  22.5407 0006721 111.1052 249.0424 14.99450900 75949
EYESAT-NANO             
1 44877U 19092E   21120.49545130  .00001531  00000-0  78829-4 0  9996
2 44877  97.4604 304.8206 0013189   3.8884 356.2450 15.17863517 75661
ORBITAL FACTORY 2 (OF-2)
1 45113U 19071C   21120.44309687  .00003612  00000-0  11408-3 0  9998
2 45113  51.6418 270.2404 0012496 119.3699 240.8533 15.35456272 69796
M2 PATHFINDER           
1 45727U 20037E   21120.37884257  .00000306  00000-0  36219-4 0  9991
2 45727  97.7157 299.2473 0012106 332.5219  27.5362 14.91361196 45256
NETSAT-4                
1 46504U 20068U   21120.60365547  .00000261  00000-0  24528-4 0  9991
2 46504  97.6904  57.8750 0008401 294.3054  65.7286 15.02074390 32053
NETSAT-3                
1 46505U 20068V   21120.60917491  .00000469  00000-0  40350-4 0  9994
2 46505  97.6897  57.8545 0006701 299.9662  60.0897 15.02039961 32066
NETSAT-1                
1 46506U 20068W   21120.54804264  .00000647  00000-0  53978-4 0  9999
2 46506  97.6900  57.7698 0004976 299.4239  60.6497 15.02009128 32050
NETSAT-2                
1 46507U 20068X   21120.61750636  .00000630  00000-0  52697-4 0  9990
2 46507  97.6884  57.8365 0004386 294.9798  65.0973 15.01986339 32010
SPOC                    
1 46921U 98067RR  21120.54857791  .00008507  00000-0  13841-3 0  9994
2 46921  51.6417 214.7693 0001805 277.9560  82.1225 15.53555040 27417
BOBCAT-1                
1 46922U 98067RS  21120.48089987  .00011852  00000-0  18097-3 0  9997
2 46922  51.6429 214.3305 0001858 294.4766  65.6031 15.54886674 27374
NEUTRON-1               
1 46923U 98067RT  21120.62463075  .00008100  00000-0  13271-3 0  9999
2 46923  51.6417 214.5254 0001902 294.4382  65.6410 15.53434854 27448
1998-067RU              
1 46924U 98067RU  21120.61425471  .00022834  00000-0  30942-3 0  9991
2 46924  51.6396 212.2025 0003183 331.9038  28.1782 15.57572826 27435
DESCENT                 
1 46927U 98067RX  21120.50017009  .00007705  00000-0  12672-3 0  9996
2 46927  51.6417 215.1914 0002271 312.8820  47.1980 15.53408263 27345
SAI-1 NANOCONNECT-2     
1 47701U 21015C   21120.44096908 -.00000071  00000-0  00000-0 0  9993
2 47701  97.4589 195.3375 0014128 101.5220 258.7795 15.22490840  9314
WARP-01                 
1 47924U 98067SA  21120.56702651  .00010178  00000-0  18149-3 0  9997
2 47924  51.6421 217.8741 0005178 296.8406  63.2053 15.50708034  7361
RSP-01                  
1 47925U 98067SB  21120.62843546  .00009080  00000-0  16279-3 0  9996
2 47925  51.6425 217.5368 0001621 229.0572 131.0277 15.50711604  7357
TAUSAT-1                
1 47926U 98067SC  21120.48965967  .00011242  00000-0  19644-3 0  9995
2 47926  51.6424 218.1107 0002779 228.0615 132.0137 15.51169769  7320
TSURU                   
1 47927U 98067SD  21120.62924213  .00008015  00000-0  14502-3 0  9993
2 47927  51.6426 217.5425 0001665 223.9748 136.1108 15.50636030  7358
STARS-EC                
1 47928U 98067SE  21120.56646933  .00008184  00000-0  14822-3 0  9999
2 47928  51.6422 217.8707 0005978 300.2391  59.8006 15.50570830  7325
MAYA-2                  
1 47929U 98067SF  21120.62825262  .00008054  00000-0  14552-3 0  9997
2 47929  51.6424 217.5359 0001748 219.1323 140.9540 15.50667962  7319
